STARLINK-36242          
1 68958U 26099H   26132.83335648 -.00015123  00000+0 -73166-4 0  9996
2 68958  53.1592 331.6895 0000655  60.8935 295.7849 15.80889219  3036
