{
  "norad_id": 68958,
  "name": "STARLINK-36242",
  "history": [
    {
      "epoch": "2026-05-12T20:00:01.999008Z",
      "apogee_km": 328.36402071481916,
      "perigee_km": 327.48552662246857,
      "latitude_deg": -2.7620737432006295,
      "longitude_deg": 159.0192337059447,
      "height_km": 329.05288037554106,
      "semi_major_axis_km": 6706.061773668644,
      "eccentricity": 6.55e-05,
      "inclination_deg": 53.1592,
      "raan_deg": 331.6895,
      "arg_perigee_deg": 60.8935,
      "mean_anomaly_deg": 295.7849,
      "mean_motion_rev_day": 15.80889218
    }
  ]
}